[{"OBJECT_NAME":"ICEYE-X4","OBJECT_ID":"2019-038D","EPOCH":"2026-03-09T23:53:58.416000","MEAN_MOTION":15.26985132,"ECCENTRICITY":0.00122769,"INCLINATION":97.8888,"RA_OF_ASC_NODE":96.1923,"ARG_OF_PERICENTER":293.9914,"MEAN_ANOMALY":66.0038,"EPHEMERIS_TYPE":0,"CLASSIFICATION_TYPE":"U","NORAD_CAT_ID":44390,"ELEMENT_SET_NO":999,"REV_AT_EPOCH":36665,"BSTAR":0.00049915294,"MEAN_MOTION_DOT":0.00013179,"MEAN_MOTION_DDOT":0},{"OBJECT_NAME":"STARLINK-35716","OBJECT_ID":"2025-303AE","EPOCH":"2026-03-09T21:47:40.242624","MEAN_MOTION":15.2758627,"ECCENTRICITY":0.0001579,"INCLINATION":43.0005,"RA_OF_ASC_NODE":309.9063,"ARG_OF_PERICENTER":312.0083,"MEAN_ANOMALY":48.0634,"EPHEMERIS_TYPE":0,"CLASSIFICATION_TYPE":"U","NORAD_CAT_ID":67191,"ELEMENT_SET_NO":999,"REV_AT_EPOCH":1276,"BSTAR":-0.0010705575,"MEAN_MOTION_DOT":-0.0002961,"MEAN_MOTION_DDOT":0}]
